[{"OBJECT_NAME":"IOD-2","OBJECT_ID":"2025-135L","EPOCH":"2026-03-09T21:44:49.218144","MEAN_MOTION":15.19495389,"ECCENTRICITY":0.00054449,"INCLINATION":97.4569,"RA_OF_ASC_NODE":184.5694,"ARG_OF_PERICENTER":150.699,"MEAN_ANOMALY":209.4552,"EPHEMERIS_TYPE":0,"CLASSIFICATION_TYPE":"U","NORAD_CAT_ID":64538,"ELEMENT_SET_NO":999,"REV_AT_EPOCH":3974,"BSTAR":0.00029035696,"MEAN_MOTION_DOT":6.098e-5,"MEAN_MOTION_DDOT":0},{"OBJECT_NAME":"OBJECT C","OBJECT_ID":"2026-027C","EPOCH":"2026-03-09T23:08:13.765344","MEAN_MOTION":15.17820753,"ECCENTRICITY":0.00106742,"INCLINATION":97.491,"RA_OF_ASC_NODE":197.9834,"ARG_OF_PERICENTER":198.1811,"MEAN_ANOMALY":161.9042,"EPHEMERIS_TYPE":0,"CLASSIFICATION_TYPE":"U","NORAD_CAT_ID":67748,"ELEMENT_SET_NO":999,"REV_AT_EPOCH":390,"BSTAR":0.00040034515,"MEAN_MOTION_DOT":8.044e-5,"MEAN_MOTION_DDOT":0}]
